AKEBONO (EXOS-D)        
1 19822U 89016A   20209.14858134  .00009278  86661-6  16558-3 0  9990
2 19822  75.0184  19.3361 1723879 238.3635 103.7914 12.09929565 44404
HST                     
1 20580U 90037B   20208.88743802  .00000363  00000-0  11053-4 0  9992
2 20580  28.4704  58.8411 0002751 153.5934 226.3816 15.09409444461935
POLAR                   
1 23802U 96013A   20205.12257189  .00000269  00000-0  00000+0 0  9994
2 23802  78.7055 249.3855 6290118 282.1077  18.2080  1.29846570116851
SWAS                    
1 25560U 98071A   20208.62619049  .00000055  00000-0  13757-4 0  9999
2 25560  69.8989 285.0875 0010977 278.8290  81.1622 14.93890242174873
ORSTED                  
1 25635U 99008B   20209.02060479  .00000041  00000-0  17506-4 0  9996
2 25635  96.4447 223.9928 0137442 223.8164 135.2066 14.48214663130612
CXO                     
1 25867U 99040B   20211.47865929  .00000319  00000-0  00000+0 0  9998
2 25867  61.7129 265.8725 7802472 227.7144   0.3235  0.37803833 20356
XMM-NEWTON              
1 25989U 99066A   20211.43386807 -.00000032  00000-0  00000+0 0  9993
2 25989  71.1025 319.9509 7061892  92.8667   0.4837  0.50135376 26592
TERRA                   
1 25994U 99068A   20209.20478163  .00000054  00000-0  22067-4 0  9995
2 25994  98.2120 282.9354 0001221  98.4429 261.6916 14.57111167 96109
CLUSTER II-FM7 (SAMBA)  
1 26410U 00041A   20210.05991072  .00000089  00000-0  00000-0 0  9993
2 26410 131.9854 341.9500 4437962 184.3082 359.3000  0.44225758 10760
CLUSTER II-FM6 (SALSA)  
1 26411U 00041B   20210.15794477  .00000061  00000-0  00000+0 0  9994
2 26411 132.0179 343.2786 5745576 190.1369 359.2714  0.44217944 21830
CLUSTER II-FM5 (RUMBA)  
1 26463U 00045A   20210.11788923  .00000115  00000-0  00000-0 0  9991
2 26463 135.6494 342.9359 5348863 189.8741 359.2997  0.44223566 10709
CLUSTER II-FM8 (TANGO)  
1 26464U 00045B   20210.04886689  .00000089  00000-0  00000-0 0  9992
2 26464 131.9783 341.9436 4439155 184.3004 359.2987  0.44217240 10779
ODIN                    
1 26702U 01007A   20209.06632149  .00000560  00000-0  40306-4 0  9997
2 26702  97.5532 225.3728 0012368 127.2505 232.9853 15.08122223 62793
TIMED                   
1 26998U 01055B   20209.46291853  .00000033  00000-0  75906-5 0  9994
2 26998  74.0707 213.5480 0002698 276.7279  83.3594 14.88203159 10496
RHESSI                  
1 27370U 02004A   20208.62457557  .00001222  00000-0  41958-4 0  9996
2 27370  38.0335 302.1396 0012799 295.0064  64.9378 15.32916708 20350
INTEGRAL                
1 27540U 02048A   20206.72437517  .00000776  00000-0  00000+0 0  9997
2 27540  55.4830 110.9719 8965306 292.5374   2.1635  0.37587371 18537
CORIOLIS                
1 27640U 03001A   20208.90060196 -.00000017  00000-0  12686-4 0  9992
2 27640  98.7257 217.7380 0013011 284.9448 136.8916 14.19042726909033
SORCE                   
1 27651U 03004A   20208.80811359 -.00000001  00000-0  14077-4 0  9990
2 27651  39.9959 110.5580 0023877 293.5988  66.2295 14.89129822950097
MOST                    
1 27843U 03031D   20208.92470845 -.00000025  00000-0  86646-5 0  9995
2 27843  98.7090 215.6512 0009705 346.4845  13.6071 14.20614354885207
SCISAT 1                
1 27858U 03036A   20208.81091506  .00000006  00000-0  58151-5 0  9995
2 27858  73.9337 107.2935 0008985 300.3465  59.6820 14.77294994913461
SWIFT                   
1 28485U 04047A   20208.89451764  .00000685  00000-0  16114-4 0  9994
2 28485  20.5568 108.7659 0011112 195.0414 164.9690 15.04641603859424
FORMOSAT-3 FM6          
1 29047U 06011A   20208.89509493  .00000020  00000-0  24151-4 0  9998
2 29047  71.9785  29.4890 0050667 352.2682   7.7667 14.28743573746953
FORMOSAT-3 FM1          
1 29048U 06011B   20208.70465710  .00000040  00000-0  32125-4 0  9994
2 29048  71.9673 300.7423 0045202 310.9501  48.7727 14.28706711749416
FORMOSAT-3 FM5          
1 29049U 06011C   20209.19357596  .00000010  00000-0  20359-4 0  9994
2 29049  72.0212 111.6188 0035731 335.4072  24.5359 14.28790107745271
FORMOSAT-3 FM3          
1 29050U 06011D   20208.84213231  .00000078  00000-0  26913-4 0  9990
2 29050  72.0146 254.4020 0051768 254.0482 105.4964 14.58932139762073
FORMOSAT-3 FM4          
1 29051U 06011E   20208.91265408  .00000014  00000-0  21410-4 0  9999
2 29051  72.0057  14.1666 0069102 217.6863 141.9422 14.28820583747827
FORMOSAT-3 FM2          
1 29052U 06011F   20208.90946391  .00000019  00000-0  23802-4 0  9998
2 29052  72.0347  88.5003 0041593 296.6666  63.0214 14.28926799745335
CLOUDSAT                
1 29107U 06016A   20208.84832885  .00000068  00000-0  22869-4 0  9995
2 29107  98.2332 155.9804 0000153 231.0654 129.0534 14.62428723758249
CALIPSO                 
1 29108U 06016B   20208.84773662  .00000078  00000-0  24753-4 0  9998
2 29108  98.2316 155.7552 0001555  78.6100 281.5276 14.62426230758099
HINODE (SOLAR-B)        
1 29479U 06041A   20208.89891639  .00000026  00000-0  13875-4 0  9993
2 29479  98.1587 220.3718 0015790 242.4893 117.4706 14.65075503739661
SJ-6C                   
1 29505U 06046A   20209.35224533  .00000345  00000-0  37003-4 0  9996
2 29505  97.8161 222.9378 0002921 260.2645  99.8230 14.94890733749578
SJ-6D                   
1 29506U 06046B   20209.53595550  .00000727  00000-0  74519-4 0  9994
2 29506  97.8364 223.2471 0002209  36.3010 323.8363 14.93525907749157
AGILE                   
1 31135U 07013A   20209.40379069  .00001918  00000-0  23885-4 0  9994
2 31135   2.4662 241.4626 0011593  81.6595 278.4773 15.32407917738187
AIM                     
1 31304U 07015A   20208.64021745  .00000503  00000-0  31915-4 0  9996
2 31304  97.9020  92.8806 0004079 210.5458 149.5535 15.13646937726617
FGRST (GLAST)           
1 33053U 08029A   20209.12322055  .00000401  00000-0  60929-5 0  9992
2 33053  25.5813 190.2227 0012680 106.2939 253.8992 15.11353070669342
WISE                    
1 36119U 09071A   20208.83973035  .00000530  00000-0  20686-4 0  9991
2 36119  97.3254 244.5747 0001217 206.2557 153.8622 15.30160459589826
SDO                     
1 36395U 10005A   20208.33543806 -.00000083  00000-0  00000+0 0  9997
2 36395  30.3862 120.6577 0001762  15.6018 186.9313  1.00269039 38456
CRYOSAT 2               
1 36508U 10013A   20208.88400081 -.00000013  00000-0 -38820-5 0  9990
2 36508  92.0325 117.3025 0008686  80.1005 280.1182 14.51993775545991
X-SAT                   
1 37389U 11015C   20209.13599728 -.00000038  00000-0  14778-5 0  9999
2 37389  98.4329 262.8821 0014335 169.5024 190.6461 14.24379181481931
GCOM-W1 (SHIZUKU)       
1 38337U 12025A   20209.44966740  .00000015  00000-0  13357-4 0  9996
2 38337  98.2104 148.8782 0001287 132.0198 340.0874 14.57111785435828
NUSTAR                  
1 38358U 12031A   20208.99164875  .00000851  00000-0  15161-4 0  9997
2 38358   6.0276 341.8283 0011061 100.9640 259.1733 14.88319156441913
NEOSSAT                 
1 39089U 13009D   20208.82215073  .00000016  00000-0  20789-4 0  9999
2 39089  98.4655  49.8842 0011577 164.6552 195.4987 14.34515402388194
IRIS                    
1 39197U 13033A   20208.92241801  .00000054  00000-0  14427-4 0  9999
2 39197  97.9597  30.5824 0029113 101.7579 258.6900 14.78740325381918
HISAKI (SPRINT-A)       
1 39253U 13049A   20209.06644041  .00000094  00000-0  36309-4 0  9995
2 39253  29.7219 352.9640 0137223 222.9567 136.0218 13.55224683340427
CASSIOPE                
1 39265U 13055A   20209.21230515  .00002417  00000-0  67550-4 0  9992
2 39265  80.9669 272.8428 0660211 186.5539 172.6692 14.29538897353461
STSAT-3                 
1 39422U 13066G   20209.13643216 -.00000004  00000-0  50354-5 0  9992
2 39422  97.5091 239.8765 0024489  63.5783 296.7944 14.89843592363042
SWARM B                 
1 39451U 13067A   20209.18280928  .00000196  00000-0  70391-5 0  9991
2 39451  87.7502 267.9215 0004050  82.5989 277.5717 15.21759569370573
SWARM A                 
1 39452U 13067B   20208.91008330  .00000829  00000-0  16814-4 0  9999
2 39452  87.3624 116.3719 0002358  97.7771 262.3755 15.44618202375276
SWARM C                 
1 39453U 13067C   20209.16917968  .00000836  00000-0  16954-4 0  9997
2 39453  87.3477 117.1541 0002364  98.1429 262.0097 15.44619405375314
BRITE-CA1 (TORONTO)     
1 40020U 14033L   20209.05029959 -.00000002  00000-0  81530-5 0  9994
2 40020  97.7311  34.9925 0086174 306.9612  52.3725 14.66652195326562
OCO 2                   
1 40059U 14035A   20208.87594105 -.00000003  00000-0  94462-5 0  9996
2 40059  98.2105 149.0489 0001466  89.8170 270.3197 14.57108084322767
BRITE-PL2 (HEWELIUSZ)   
1 40119U 14049B   20208.81818907  .00000059  00000-0  13411-4 0  9995
2 40119  97.8957 300.6515 0016916 345.2628  14.8091 14.84518335321624
RESURS P2               
1 40360U 14087A   20209.45142905  .00000453  00000-0  16258-4 0  9994
2 40360  97.2456 297.4750 0010586  48.7740  79.9092 15.33591323312447
MMS 1                   
1 40482U 15011A   20207.04166667 -.00001588  00000-0  00000+0 0  9995
2 40482  29.1471 120.0719 8597238  22.2843 359.9824  0.28640990 11322
MMS 2                   
1 40483U 15011B   20207.04166667 -.00001587  00000-0  00000+0 0  9995
2 40483  29.1466 120.0725 8594747  22.2869 359.9769  0.28640997 11307
MMS 3                   
1 40484U 15011C   20207.04166667 -.00001588  00000-0  00000+0 0  9997
2 40484  29.1469 120.0560 8596425  22.3104 359.9509  0.28635709 11303
MMS 4                   
1 40485U 15011D   20207.04166667 -.00001587  00000-0  00000+0 0  9997
2 40485  29.1472 120.0850 8596437  22.2883 359.9410  0.28640945 11305
ASTROSAT                
1 40930U 15052A   20208.54977428  .00000710  00000-0  10741-4 0  9992
2 40930   5.9979  63.6351 0007987 102.5811 257.5210 14.76321986261008
DAMPE                   
1 41173U 15078A   20209.56003372  .00000028  00000-0  40240-5 0  9991
2 41173  97.3259 202.6387 0015390 108.0138   7.7933 15.23885368256506
PISAT                   
1 41784U 16059B   20208.87894650  .00000034  00000-0  15670-4 0  9994
2 41784  98.0158 264.2971 0031822 186.7339 173.3440 14.63527198204678
HXMT (HUIYAN)           
1 42758U 17034A   20209.32381273  .00000025  00000-0  15281-4 0  9991
2 42758  43.0170 177.2669 0012106 280.8826 225.7771 15.08854907171899
FLYING LAPTOP           
1 42831U 17042G   20208.92053954 -.00000056  00000-0 -33644-6 0  9990
2 42831  97.5164  88.9801 0014812 147.9279 212.2844 14.91140467165171
PICSAT                  
1 43132U 18004X   20209.15743159  .00000920  00000-0  40334-4 0  9993
2 43132  97.4454 280.2534 0007809 274.6708  85.3637 15.24493952141103
ZHANGZHENG-1 (CSES)     
1 43194U 18015C   20209.52576021  .00000662  00000-0  32932-4 0  9994
2 43194  97.4417 334.0745 0014673 337.4513 152.6129 15.20990394137759
ICON                    
1 44628U 19068A   20209.16469361  .00000398  00000-0  18893-4 0  9990
2 44628  26.9897 134.4197 0019094  42.3103 317.8924 14.91709434 43353
